{"type": "FeatureCollection", "features": [ {"type": "Feature", "properties": {"norad_id": 34637, "name": "COSMOS 2251 DEB", "group": "cosmos-2251-debris", "lat": -7.702545772201804, "lon": -104.13945536731038, "alt_km": 672.7754677460098, "timestamp": "2025-12-27T03:58:44.541707+00:00", "meta": {"OBJECT_NAME": "COSMOS 2251 DEB", "OBJECT_ID": "1993-036XJ", "EPOCH": "2025-12-26T16:18:56.376288", "MEAN_MOTION": 14.60213095, "ECCENTRICITY": 0.0048701, "INCLINATION": 74.0493, "RA_OF_ASC_NODE": 74.5702, "ARG_OF_PERICENTER": 141.2837, "MEAN_ANOMALY": 12.5962, "EPHEMERIS_TYPE": 0, "CLASSIFICATION_TYPE": "U", "NORAD_CAT_ID": 34637, "ELEMENT_SET_NO": 999, "REV_AT_EPOCH": 88730, "BSTAR": 0.00084407, "MEAN_MOTION_DOT": 4.11e-05, "MEAN_MOTION_DDOT": 0}, "tle": {"line1": "1 34637U 93036XJ  25360.67981917  .00004110  00000+0  84407-3 0  9999", "line2": "2 34637  74.0493  74.5702 0048701 141.2837  12.5962 14.60213095887305"}}, "geometry": {"type": "Point", "coordinates": [-104.13945536731038, -7.702545772201804]}}, {"type": "Feature", "properties": {"norad_id": 34641, "name": "COSMOS 2251 DEB", "group": "cosmos-2251-debris", "lat": 57.71451503384295, "lon": -153.17957074956408, "alt_km": 724.8349420209342, "timestamp": "2025-12-27T03:58:44.541717+00:00", "meta": {"OBJECT_NAME": "COSMOS 2251 DEB", "OBJECT_ID": "1993-036XN", "EPOCH": "2025-12-26T14:54:30.263040", "MEAN_MOTION": 14.5208918, "ECCENTRICITY": 0.0019151, "INCLINATION": 73.8391, "RA_OF_ASC_NODE": 55.1782, "ARG_OF_PERICENTER": 328.0054, "MEAN_ANOMALY": 184.3533, "EPHEMERIS_TYPE": 0, "CLASSIFICATION_TYPE": "U", "NORAD_CAT_ID": 34641, "ELEMENT_SET_NO": 999, "REV_AT_EPOCH": 88457, "BSTAR": 0.00070823, "MEAN_MOTION_DOT": 2.845e-05, "MEAN_MOTION_DDOT": 0}, "tle": {"line1": "1 34641U 93036XN  25360.62118360  .00002845  00000+0  70823-3 0  9993", "line2": "2 34641  73.8391  55.1782 0019151 328.0054 184.3533 14.52089180884575"}}, "geometry": {"type": "Point", "coordinates": [-153.17957074956408, 57.71451503384295]}}, {"type": "Feature", "properties": {"norad_id": 34642, "name": "COSMOS 2251 DEB", "group": "cosmos-2251-debris", "lat": -30.45039345042118, "lon": -54.895163139153404, "alt_km": 1046.1099147846144, "timestamp": "2025-12-27T03:58:44.541726+00:00", "meta": {"OBJECT_NAME": "COSMOS 2251 DEB", "OBJECT_ID": "1993-036XP", "EPOCH": "2025-12-26T08:15:27.972000", "MEAN_MOTION": 13.99010447, "ECCENTRICITY": 0.020642, "INCLINATION": 74.0043, "RA_OF_ASC_NODE": 316.2358, "ARG_OF_PERICENTER": 132.8171, "MEAN_ANOMALY": 19.2317, "EPHEMERIS_TYPE": 0, "CLASSIFICATION_TYPE": "U", "NORAD_CAT_ID": 34642, "ELEMENT_SET_NO": 999, "REV_AT_EPOCH": 85483, "BSTAR": 0.00085901, "MEAN_MOTION_DOT": 1.468e-05, "MEAN_MOTION_DDOT": 0}, "tle": {"line1": "1 34642U 93036XP  25360.34407375  .00001468  00000+0  85901-3 0  9993", "line2": "2 34642  74.0043 316.2358 0206420 132.8171  19.2317 13.99010447854833"}}, "geometry": {"type": "Point", "coordinates": [-54.895163139153404, -30.45039345042118]}}, {"type": "Feature", "properties": {"norad_id": 34671, "name": "COSMOS 2251 DEB", "group": "cosmos-2251-debris", "lat": -70.96122599475208, "lon": 50.346058203737726, "alt_km": 677.2544406059824, "timestamp": "2025-12-27T03:58:44.541735+00:00", "meta": {"OBJECT_NAME": "COSMOS 2251 DEB", "OBJECT_ID": "1993-036XR", "EPOCH": "2025-12-26T17:34:24.222720", "MEAN_MOTION": 14.67181745, "ECCENTRICITY": 0.001033, "INCLINATION": 74.0276, "RA_OF_ASC_NODE": 107.28, "ARG_OF_PERICENTER": 189.2893, "MEAN_ANOMALY": 321.9941, "EPHEMERIS_TYPE": 0, "CLASSIFICATION_TYPE": "U", "NORAD_CAT_ID": 34671, "ELEMENT_SET_NO": 999, "REV_AT_EPOCH": 88502, "BSTAR": 0.0017995, "MEAN_MOTION_DOT": 0.00010118, "MEAN_MOTION_DDOT": 0}, "tle": {"line1": "1 34671U 93036XR  25360.73222480  .00010118  00000+0  17995-2 0  9999", "line2": "2 34671  74.0276 107.2800 0010330 189.2893 321.9941 14.67181745885020"}}, "geometry": {"type": "Point", "coordinates": [50.346058203737726, -70.96122599475208]}}, {"type": "Feature", "properties": {"norad_id": 34672, "name": "COSMOS 2251 DEB", "group": "cosmos-2251-debris", "lat": -47.56503474645524, "lon": -99.16090559276658, "alt_km": 763.0590709572789, "timestamp": "2025-12-27T03:58:44.541745+00:00", "meta": {"OBJECT_NAME": "COSMOS 2251 DEB", "OBJECT_ID": "1993-036XS", "EPOCH": "2025-12-23T01:39:52.431840", "MEAN_MOTION": 14.36424251, "ECCENTRICITY": 0.00243004, "INCLINATION": 74.0343, "RA_OF_ASC_NODE": 286.6106, "ARG_OF_PERICENTER": 356.389, "MEAN_ANOMALY": 18.9966, "EPHEMERIS_TYPE": 0, "CLASSIFICATION_TYPE": "U", "NORAD_CAT_ID": 34672, "ELEMENT_SET_NO": 999, "REV_AT_EPOCH": 65326, "BSTAR": 0.00025150328, "MEAN_MOTION_DOT": 7.13e-06, "MEAN_MOTION_DDOT": 0}, "tle": {"line1": "1 34672U 93036XS  25357.06935685  .00000713  00000+0  25150-3 0  9993", "line2": "2 34672  74.0343 286.6106 0024300 356.3890  18.9966 14.36424251653260"}}, "geometry": {"type": "Point", "coordinates": [-99.16090559276658, -47.56503474645524]}}, {"type": "Feature", "properties": {"norad_id": 34678, "name": "COSMOS 2251 DEB", "group": "cosmos-2251-debris", "lat": 15.681614883499593, "lon": 154.85598069787184, "alt_km": 805.3620278668213, "timestamp": "2025-12-27T03:58:44.541755+00:00", "meta": {"OBJECT_NAME": "COSMOS 2251 DEB", "OBJECT_ID": "1993-036XY", "EPOCH": "2025-12-26T17:23:59.744256", "MEAN_MOTION": 14.30067508, "ECCENTRICITY": 0.0024859, "INCLINATION": 74.0379, "RA_OF_ASC_NODE": 340.2658, "ARG_OF_PERICENTER": 25.1547, "MEAN_ANOMALY": 29.805, "EPHEMERIS_TYPE": 0, "CLASSIFICATION_TYPE": "U", "NORAD_CAT_ID": 34678, "ELEMENT_SET_NO": 999, "REV_AT_EPOCH": 87579, "BSTAR": 3.9505e-05, "MEAN_MOTION_DOT": 7.7e-07, "MEAN_MOTION_DDOT": 0}, "tle": {"line1": "1 34678U 93036XY  25360.72499704  .00000077  00000+0  39505-4 0  9996", "line2": "2 34678  74.0379 340.2658 0024859  25.1547  29.8050 14.30067508875794"}}, "geometry": {"type": "Point", "coordinates": [154.85598069787184, 15.681614883499593]}}, {"type": "Feature", "properties": {"norad_id": 34680, "name": "COSMOS 2251 DEB", "group": "cosmos-2251-debris", "lat": -51.755234085743204, "lon": -56.40307532430755, "alt_km": 693.5272963850466, "timestamp": "2025-12-27T03:58:44.541765+00:00", "meta": {"OBJECT_NAME": "COSMOS 2251 DEB", "OBJECT_ID": "1993-036YA", "EPOCH": "2025-12-26T15:42:39.280320", "MEAN_MOTION": 14.60769199, "ECCENTRICITY": 0.0006141, "INCLINATION": 74.0436, "RA_OF_ASC_NODE": 103.2882, "ARG_OF_PERICENTER": 205.4057, "MEAN_ANOMALY": 222.2258, "EPHEMERIS_TYPE": 0, "CLASSIFICATION_TYPE": "U", "NORAD_CAT_ID": 34680, "ELEMENT_SET_NO": 999, "REV_AT_EPOCH": 88531, "BSTAR": 0.0011906, "MEAN_MOTION_DOT": 5.787e-05, "MEAN_MOTION_DDOT": 0}, "tle": {"line1": "1 34680U 93036YA  25360.65462130  .00005787  00000+0  11906-2 0  9990", "line2": "2 34680  74.0436 103.2882 0006141 205.4057 222.2258 14.60769199885316"}}, "geometry": {"type": "Point", "coordinates": [-56.40307532430755, -51.755234085743204]}}, {"type": "Feature", "properties": {"norad_id": 34681, "name": "COSMOS 2251 DEB", "group": "cosmos-2251-debris", "lat": -18.897198601106755, "lon": 87.48969642388295, "alt_km": 631.0048682711995, "timestamp": "2025-12-27T03:58:44.541774+00:00", "meta": {"OBJECT_NAME": "COSMOS 2251 DEB", "OBJECT_ID": "1993-036YB", "EPOCH": "2025-12-26T19:17:32.518176", "MEAN_MOTION": 14.83527031, "ECCENTRICITY": 0.0025668, "INCLINATION": 74.0625, "RA_OF_ASC_NODE": 262.5914, "ARG_OF_PERICENTER": 317.1474, "MEAN_ANOMALY": 110.4564, "EPHEMERIS_TYPE": 0, "CLASSIFICATION_TYPE": "U", "NORAD_CAT_ID": 34681, "ELEMENT_SET_NO": 999, "REV_AT_EPOCH": 89479, "BSTAR": 0.0012364, "MEAN_MOTION_DOT": 0.00010217, "MEAN_MOTION_DDOT": 0}, "tle": {"line1": "1 34681U 93036YB  25360.80384859  .00010217  00000+0  12364-2 0  9992", "line2": "2 34681  74.0625 262.5914 0025668 317.1474 110.4564 14.83527031894793"}}, "geometry": {"type": "Point", "coordinates": [87.48969642388295, -18.897198601106755]}}, {"type": "Feature", "properties": {"norad_id": 34682, "name": "COSMOS 2251 DEB", "group": "cosmos-2251-debris", "lat": 50.99600677179357, "lon": -145.18086954970042, "alt_km": 685.329272971192, "timestamp": "2025-12-27T03:58:44.541784+00:00", "meta": {"OBJECT_NAME": "COSMOS 2251 DEB", "OBJECT_ID": "1993-036YC", "EPOCH": "2025-12-26T10:59:56.985216", "MEAN_MOTION": 14.58986832, "ECCENTRICITY": 0.0017558, "INCLINATION": 74.0392, "RA_OF_ASC_NODE": 56.8597, "ARG_OF_PERICENTER": 188.466, "MEAN_ANOMALY": 183.2247, "EPHEMERIS_TYPE": 0, "CLASSIFICATION_TYPE": "U", "NORAD_CAT_ID": 34682, "ELEMENT_SET_NO": 999, "REV_AT_EPOCH": 88886, "BSTAR": 0.00071513, "MEAN_MOTION_DOT": 3.336e-05, "MEAN_MOTION_DDOT": 0}, "tle": {"line1": "1 34682U 93036YC  25360.45829844  .00003336  00000+0  71513-3 0  9998", "line2": "2 34682  74.0392  56.8597 0017558 188.4660 183.2247 14.58986832888868"}}, "geometry": {"type": "Point", "coordinates": [-145.18086954970042, 50.99600677179357]}}, {"type": "Feature", "properties": {"norad_id": 34683, "name": "COSMOS 2251 DEB", "group": "cosmos-2251-debris", "lat": -29.88635728272655, "lon": -105.99880230677581, "alt_km": 673.4269455549302, "timestamp": "2025-12-27T03:58:44.541793+00:00", "meta": {"OBJECT_NAME": "COSMOS 2251 DEB", "OBJECT_ID": "1993-036YD", "EPOCH": "2025-12-25T15:38:47.520960", "MEAN_MOTION": 14.64647296, "ECCENTRICITY": 0.0017296, "INCLINATION": 74.0287, "RA_OF_ASC_NODE": 67.4379, "ARG_OF_PERICENTER": 182.0594, "MEAN_ANOMALY": 330.0429, "EPHEMERIS_TYPE": 0, "CLASSIFICATION_TYPE": "U", "NORAD_CAT_ID": 34683, "ELEMENT_SET_NO": 999, "REV_AT_EPOCH": 88537, "BSTAR": 0.0012249, "MEAN_MOTION_DOT": 6.502e-05, "MEAN_MOTION_DDOT": 0}, "tle": {"line1": "1 34683U 93036YD  25359.65193890  .00006502  00000+0  12249-2 0  9992", "line2": "2 34683  74.0287  67.4379 0017296 182.0594 330.0429 14.64647296885375"}}, "geometry": {"type": "Point", "coordinates": [-105.99880230677581, -29.88635728272655]}}]}